[{"OBJECT_NAME":"GOSAT 2 (IBUKI 1)","OBJECT_ID":"2018-084B","EPOCH":"2026-03-09T20:32:04.212384","MEAN_MOTION":14.84242316,"ECCENTRICITY":0.0001478,"INCLINATION":97.8678,"RA_OF_ASC_NODE":181.6299,"ARG_OF_PERICENTER":93.8371,"MEAN_ANOMALY":266.3012,"EPHEMERIS_TYPE":0,"CLASSIFICATION_TYPE":"U","NORAD_CAT_ID":43672,"ELEMENT_SET_NO":999,"REV_AT_EPOCH":39882,"BSTAR":0.00032562653,"MEAN_MOTION_DOT":2.674e-5,"MEAN_MOTION_DDOT":0},{"OBJECT_NAME":"COSMOS 2251 DEB","OBJECT_ID":"1993-036BX","EPOCH":"2026-03-09T23:15:41.584320","MEAN_MOTION":14.78163626,"ECCENTRICITY":0.00411722,"INCLINATION":74.0315,"RA_OF_ASC_NODE":59.1683,"ARG_OF_PERICENTER":162.6806,"MEAN_ANOMALY":231.0089,"EPHEMERIS_TYPE":0,"CLASSIFICATION_TYPE":"U","NORAD_CAT_ID":33830,"ELEMENT_SET_NO":999,"REV_AT_EPOCH":90760,"BSTAR":0.00087258081,"MEAN_MOTION_DOT":6.382e-5,"MEAN_MOTION_DDOT":0}]
